CCSDS_OMM_VERS = 2.0
CREATION_DATE  = 
ORIGINATOR     = 

OBJECT_NAME    = SL-16 R/B
OBJECT_ID      = 1993-016B
CENTER_NAME    = EARTH
REF_FRAME      = TEME
TIME_SYSTEM    = UTC
MEAN_ELEMENT_THEORY = SGP/SGP4

EPOCH          = 2026-02-20T23:00:34.971840
MEAN_MOTION    = 14.15299932
ECCENTRICITY   = .00107304
INCLINATION    = 71.0043
RA_OF_ASC_NODE = 250.3227
ARG_OF_PERICENTER = 337.0068
MEAN_ANOMALY   = 23.0573

EPHEMERIS_TYPE = 0
CLASSIFICATION_TYPE = U
NORAD_CAT_ID   = 22566
ELEMENT_SET_NO = 999
REV_AT_EPOCH   = 69980
BSTAR          = -.19094202E-4
MEAN_MOTION_DOT = -.85E-6
MEAN_MOTION_DDOT = 0

CCSDS_OMM_VERS = 2.0
CREATION_DATE  = 
ORIGINATOR     = 

OBJECT_NAME    = COSMOS 2242
OBJECT_ID      = 1993-024A
CENTER_NAME    = EARTH
REF_FRAME      = TEME
TIME_SYSTEM    = UTC
MEAN_ELEMENT_THEORY = SGP/SGP4

EPOCH          = 2026-02-21T02:53:37.251456
MEAN_MOTION    = 14.96476086
ECCENTRICITY   = .00165804
INCLINATION    = 82.5171
RA_OF_ASC_NODE = 282.5667
ARG_OF_PERICENTER = 6.4724
MEAN_ANOMALY   = 353.6709

EPHEMERIS_TYPE = 0
CLASSIFICATION_TYPE = U
NORAD_CAT_ID   = 22626
ELEMENT_SET_NO = 999
REV_AT_EPOCH   = 77791
BSTAR          = .14345034E-3
MEAN_MOTION_DOT = .1658E-4
MEAN_MOTION_DDOT = 0

CCSDS_OMM_VERS = 2.0
CREATION_DATE  = 
ORIGINATOR     = 

OBJECT_NAME    = SL-16 R/B
OBJECT_ID      = 1993-059B
CENTER_NAME    = EARTH
REF_FRAME      = TEME
TIME_SYSTEM    = UTC
MEAN_ELEMENT_THEORY = SGP/SGP4

EPOCH          = 2026-02-21T05:50:13.365600
MEAN_MOTION    = 14.17227567
ECCENTRICITY   = .00191934
INCLINATION    = 70.9896
RA_OF_ASC_NODE = 45.8081
ARG_OF_PERICENTER = 239.1573
MEAN_ANOMALY   = 120.7663

EPHEMERIS_TYPE = 0
CLASSIFICATION_TYPE = U
NORAD_CAT_ID   = 22803
ELEMENT_SET_NO = 999
REV_AT_EPOCH   = 67720
BSTAR          = .44422208E-4
MEAN_MOTION_DOT = .42E-6
MEAN_MOTION_DDOT = 0

CCSDS_OMM_VERS = 2.0
CREATION_DATE  = 
ORIGINATOR     = 

OBJECT_NAME    = ARIANE 40 R/B
OBJECT_ID      = 1993-061H
CENTER_NAME    = EARTH
REF_FRAME      = TEME
TIME_SYSTEM    = UTC
MEAN_ELEMENT_THEORY = SGP/SGP4

EPOCH          = 2026-02-21T05:14:40.837344
MEAN_MOTION    = 14.32851449
ECCENTRICITY   = .00100355
INCLINATION    = 98.4954
RA_OF_ASC_NODE = 121.4284
ARG_OF_PERICENTER = 338.3533
MEAN_ANOMALY   = 21.7225

EPHEMERIS_TYPE = 0
CLASSIFICATION_TYPE = U
NORAD_CAT_ID   = 22830
ELEMENT_SET_NO = 999
REV_AT_EPOCH   = 69174
BSTAR          = .80741331E-4
MEAN_MOTION_DOT = .177E-5
MEAN_MOTION_DDOT = 0

CCSDS_OMM_VERS = 2.0
CREATION_DATE  = 
ORIGINATOR     = 

OBJECT_NAME    = COSMOS 2278
OBJECT_ID      = 1994-023A
CENTER_NAME    = EARTH
REF_FRAME      = TEME
TIME_SYSTEM    = UTC
MEAN_ELEMENT_THEORY = SGP/SGP4

EPOCH          = 2026-02-20T20:04:03.806688
MEAN_MOTION    = 14.14366517
ECCENTRICITY   = .0007165
INCLINATION    = 71.0514
RA_OF_ASC_NODE = 210.3562
ARG_OF_PERICENTER = 46.9099
MEAN_ANOMALY   = 313.2622

EPHEMERIS_TYPE = 0
CLASSIFICATION_TYPE = U
NORAD_CAT_ID   = 23087
ELEMENT_SET_NO = 999
REV_AT_EPOCH   = 64242
BSTAR          = .17309E-3
MEAN_MOTION_DOT = .284E-5
MEAN_MOTION_DDOT = 0

CCSDS_OMM_VERS = 2.0
CREATION_DATE  = 
ORIGINATOR     = 

OBJECT_NAME    = SL-16 R/B
OBJECT_ID      = 1994-023B
CENTER_NAME    = EARTH
REF_FRAME      = TEME
TIME_SYSTEM    = UTC
MEAN_ELEMENT_THEORY = SGP/SGP4

EPOCH          = 2026-02-21T05:50:57.141888
MEAN_MOTION    = 14.15010694
ECCENTRICITY   = .00049601
INCLINATION    = 70.9991
RA_OF_ASC_NODE = 105.4279
ARG_OF_PERICENTER = 300.6797
MEAN_ANOMALY   = 59.3836

EPHEMERIS_TYPE = 0
CLASSIFICATION_TYPE = U
NORAD_CAT_ID   = 23088
ELEMENT_SET_NO = 999
REV_AT_EPOCH   = 64376
BSTAR          = .16500518E-3
MEAN_MOTION_DOT = .272E-5
MEAN_MOTION_DDOT = 0

CCSDS_OMM_VERS = 2.0
CREATION_DATE  = 
ORIGINATOR     = 

OBJECT_NAME    = SL-16 R/B
OBJECT_ID      = 1994-074B
CENTER_NAME    = EARTH
REF_FRAME      = TEME
TIME_SYSTEM    = UTC
MEAN_ELEMENT_THEORY = SGP/SGP4

EPOCH          = 2026-02-21T01:55:10.804224
MEAN_MOTION    = 14.79386613
ECCENTRICITY   = .00051377
INCLINATION    = 97.7133
RA_OF_ASC_NODE = 83.5687
ARG_OF_PERICENTER = 276.9794
MEAN_ANOMALY   = 105.7470

EPHEMERIS_TYPE = 0
CLASSIFICATION_TYPE = U
NORAD_CAT_ID   = 23343
ELEMENT_SET_NO = 999
REV_AT_EPOCH   = 68479
BSTAR          = .61410403E-4
MEAN_MOTION_DOT = .408E-5
MEAN_MOTION_DDOT = 0

CCSDS_OMM_VERS = 2.0
CREATION_DATE  = 
ORIGINATOR     = 

OBJECT_NAME    = SL-16 R/B
OBJECT_ID      = 1994-077B
CENTER_NAME    = EARTH
REF_FRAME      = TEME
TIME_SYSTEM    = UTC
MEAN_ELEMENT_THEORY = SGP/SGP4

EPOCH          = 2026-02-21T05:33:41.786496
MEAN_MOTION    = 14.15563783
ECCENTRICITY   = .00038582
INCLINATION    = 70.9839
RA_OF_ASC_NODE = 27.1111
ARG_OF_PERICENTER = 228.7382
MEAN_ANOMALY   = 131.3409

EPHEMERIS_TYPE = 0
CLASSIFICATION_TYPE = U
NORAD_CAT_ID   = 23405
ELEMENT_SET_NO = 999
REV_AT_EPOCH   = 61390
BSTAR          = .49395084E-4
MEAN_MOTION_DOT = .49E-6
MEAN_MOTION_DDOT = 0

CCSDS_OMM_VERS = 2.0
CREATION_DATE  = 
ORIGINATOR     = 

OBJECT_NAME    = ARIANE 40+ R/B
OBJECT_ID      = 1995-021B
CENTER_NAME    = EARTH
REF_FRAME      = TEME
TIME_SYSTEM    = UTC
MEAN_ELEMENT_THEORY = SGP/SGP4

EPOCH          = 2026-02-21T04:47:18.218688
MEAN_MOTION    = 14.39759338
ECCENTRICITY   = .00068481
INCLINATION    = 98.4533
RA_OF_ASC_NODE = 123.9027
ARG_OF_PERICENTER = 182.1144
MEAN_ANOMALY   = 198.7597

EPHEMERIS_TYPE = 0
CLASSIFICATION_TYPE = U
NORAD_CAT_ID   = 23561
ELEMENT_SET_NO = 999
REV_AT_EPOCH   = 61687
BSTAR          = .93626092E-4
MEAN_MOTION_DOT = .25E-5
MEAN_MOTION_DDOT = 0

CCSDS_OMM_VERS = 2.0
CREATION_DATE  = 
ORIGINATOR     = 

OBJECT_NAME    = SL-16 R/B
OBJECT_ID      = 1995-058B
CENTER_NAME    = EARTH
REF_FRAME      = TEME
TIME_SYSTEM    = UTC
MEAN_ELEMENT_THEORY = SGP/SGP4

EPOCH          = 2026-02-20T21:13:45.982272
MEAN_MOTION    = 14.15495297
ECCENTRICITY   = .0011401
INCLINATION    = 71.0200
RA_OF_ASC_NODE = 215.5350
ARG_OF_PERICENTER = 155.0467
MEAN_ANOMALY   = 205.1210

EPHEMERIS_TYPE = 0
CLASSIFICATION_TYPE = U
NORAD_CAT_ID   = 23705
ELEMENT_SET_NO = 999
REV_AT_EPOCH   = 56547
BSTAR          = -.7639E-4
MEAN_MOTION_DOT = -.197E-5
MEAN_MOTION_DDOT = 0

CCSDS_OMM_VERS = 2.0
CREATION_DATE  = 
ORIGINATOR     = 

OBJECT_NAME    = SL-16 R/B
OBJECT_ID      = 1996-051B
CENTER_NAME    = EARTH
REF_FRAME      = TEME
TIME_SYSTEM    = UTC
MEAN_ELEMENT_THEORY = SGP/SGP4

EPOCH          = 2026-02-20T21:15:14.950080
MEAN_MOTION    = 14.12410862
ECCENTRICITY   = .0016615
INCLINATION    = 70.7578
RA_OF_ASC_NODE = 210.8054
ARG_OF_PERICENTER = 172.2336
MEAN_ANOMALY   = 187.9044

EPHEMERIS_TYPE = 0
CLASSIFICATION_TYPE = U
NORAD_CAT_ID   = 24298
ELEMENT_SET_NO = 999
REV_AT_EPOCH   = 51927
BSTAR          = .73627E-4
MEAN_MOTION_DOT = .87E-6
MEAN_MOTION_DDOT = 0

CCSDS_OMM_VERS = 2.0
CREATION_DATE  = 
ORIGINATOR     = 

OBJECT_NAME    = ORBVIEW 2 (SEASTAR)
OBJECT_ID      = 1997-037A
CENTER_NAME    = EARTH
REF_FRAME      = TEME
TIME_SYSTEM    = UTC
MEAN_ELEMENT_THEORY = SGP/SGP4

EPOCH          = 2026-02-20T23:14:05.629344
MEAN_MOTION    = 14.35480695
ECCENTRICITY   = .00031936
INCLINATION    = 98.8536
RA_OF_ASC_NODE = 215.8394
ARG_OF_PERICENTER = 105.8134
MEAN_ANOMALY   = 254.3403

EPHEMERIS_TYPE = 0
CLASSIFICATION_TYPE = U
NORAD_CAT_ID   = 24883
ELEMENT_SET_NO = 999
REV_AT_EPOCH   = 50607
BSTAR          = .98503571E-4
MEAN_MOTION_DOT = .237E-5
MEAN_MOTION_DDOT = 0

