SL-16 R/B               
1 22566U 93016B   26051.95873810 -.00000085  00000+0 -19094-4 0  9996
2 22566  71.0043 250.3227 0010730 337.0068  23.0573 14.15299932699804
COSMOS 2242             
1 22626U 93024A   26052.12057004  .00001658  00000+0  14345-3 0  9999
2 22626  82.5171 282.5667 0016580   6.4724 353.6709 14.96476086777918
SL-16 R/B               
1 22803U 93059B   26052.24321025  .00000042  00000+0  44422-4 0  9990
2 22803  70.9896  45.8081 0019193 239.1573 120.7663 14.17227567677204
ARIANE 40 R/B           
1 22830U 93061H   26052.21852821  .00000177  00000+0  80741-4 0  9996
2 22830  98.4954 121.4284 0010035 338.3533  21.7225 14.32851449691742
COSMOS 2278             
1 23087U 94023A   26051.83615517  .00000284  00000+0  17309-3 0  9994
2 23087  71.0514 210.3562 0007165  46.9099 313.2622 14.14366517642420
SL-16 R/B               
1 23088U 94023B   26052.24371692  .00000272  00000+0  16501-3 0  9994
2 23088  70.9991 105.4279 0004960 300.6797  59.3836 14.15010694643768
SL-16 R/B               
1 23343U 94074B   26052.07998616  .00000408  00000+0  61410-4 0  9997
2 23343  97.7133  83.5687 0005137 276.9794 105.7470 14.79386613684790
SL-16 R/B               
1 23405U 94077B   26052.23173364  .00000049  00000+0  49395-4 0  9991
2 23405  70.9839  27.1111 0003858 228.7382 131.3409 14.15563783613904
ARIANE 40+ R/B          
1 23561U 95021B   26052.19951642  .00000250  00000+0  93626-4 0  9992
2 23561  98.4533 123.9027 0006848 182.1144 198.7597 14.39759338616878
SL-16 R/B               
1 23705U 95058B   26051.88455998 -.00000197  00000+0 -76390-4 0  9991
2 23705  71.0200 215.5350 0011401 155.0467 205.1210 14.15495297565470
SL-16 R/B               
1 24298U 96051B   26051.88558970  .00000087  00000+0  73627-4 0  9993
2 24298  70.7578 210.8054 0016615 172.2336 187.9044 14.12410862519270
ORBVIEW 2 (SEASTAR)     
1 24883U 97037A   26051.96812071  .00000237  00000+0  98504-4 0  9990
2 24883  98.8536 215.8394 0003193 105.8134 254.3403 14.35480695506070
